COSMOS 2413 (712)       
1 28509U 04053B   16028.06735508  .00000055  00000-0  00000+0 0  9996
2 28509  63.1325 195.1229 0005560 162.6927  68.3204  2.13101882 86298
COSMOS 2419 (714)       
1 28915U 05050A   16028.72574675 -.00000025  00000-0  00000+0 0  9992
2 28915  65.2584  82.9097 0015125 345.8076  30.1865  2.13112399 78569
COSMOS 2425 (716)       
1 29670U 06062A   16029.21403633 -.00000052  00000-0  10000-3 0  9990
2 29670  65.6921 321.8593 0023323 342.7534 109.2926  2.13104892 70777
COSMOS 2426 (717)       
1 29671U 06062B   16028.68718249 -.00000051  00000-0  10000-3 0  9992
2 29671  65.7094 321.9554 0015130 169.8925  99.8779  2.13102985 70767
COSMOS 2424 (715)       
1 29672U 06062C   16029.14869088 -.00000052  00000-0  10000-3 0  9994
2 29672  65.6942 321.8710 0014507 168.4527 272.0820  2.13101979 70777
COSMOS 2433 (720)       
1 32275U 07052A   16028.49872139 -.00000024  00000-0  10000-3 0  9994
2 32275  65.2741  82.6839 0004097 259.2543 195.8475  2.13104950 64275
COSMOS 2432 (719)       
1 32276U 07052B   16028.49711285 -.00000024  00000-0  10000-3 0  9999
2 32276  65.2863  82.7475 0011980 330.0585  77.9460  2.13104166 64274
COSMOS 2434 (721)       
1 32393U 07065A   16028.41052456 -.00000052  00000-0  00000+0 0  9999
2 32393  65.3118 321.2762 0002072  84.5368 196.0776  2.13102680 62977
COSMOS 2436 (723)       
1 32395U 07065C   16029.45756874 -.00000053  00000-0  10000-3 0  9997
2 32395  65.3246 321.2805 0018683 349.4046 106.4574  2.13102749 62933
COSMOS 2443 (725)       
1 33379U 08046B   16029.45864168 -.00000027  00000-0  10000-3 0  9997
2 33379  65.2033  82.0820 0018595 189.3637 188.9685  2.13101390 57165
COSMOS 2456 (730)       
1 36111U 09070A   16028.68773603  .00000066  00000-0  00000+0 0  9996
2 36111  64.1868 200.8781 0003531 351.7825 310.3696  2.13102881 47641
COSMOS 2457 (733)       
1 36112U 09070B   16029.21769397  .00000072  00000-0  00000+0 0  9999
2 36112  64.1688 200.7898 0007448 145.5447 334.1014  2.13101536 47666
COSMOS 2458 (734)       
1 36113U 09070C   16028.50151266  .00000063  00000-0  10000-3 0  9996
2 36113  64.1742 200.8193 0003203  60.8300 276.6519  2.13101941 47647
COSMOS 2459 (731)       
1 36400U 10007A   16029.10633012 -.00000026  00000-0  10000-3 0  9998
2 36400  65.1817  81.8322 0028155 349.9690  77.8573  2.13102208 46015
COSMOS 2461 (735)       
1 36401U 10007B   16028.37063219 -.00000024  00000-0  10000-3 0  9991
2 36401  65.1742  81.8398 0004441  71.6058  62.3662  2.13102168 45994
COSMOS 2460 (732)       
1 36402U 10007C   16028.30380189 -.00000024  00000-0  10000-3 0  9993
2 36402  65.1647  81.8208 0001570 251.8435 232.9610  2.13101862 45998
COSMOS 2466 (738)       
1 37137U 10041A   16029.43028764 -.00000054  00000-0  10000-3 0  9993
2 37137  64.8952 321.4144 0018383 155.9884  50.5608  2.13102263 42098
COSMOS 2465 (737)       
1 37138U 10041B   16029.53385686 -.00000054  00000-0  00000+0 0  9999
2 37138  64.9120 321.4810 0032936 170.0835 298.4733  2.13102621 42091
COSMOS 2464 (736)       
1 37139U 10041C   16028.50452803 -.00000052  00000-0  00000+0 0  9990
2 37139  64.9145 321.5092 0023082   9.3453 164.1345  2.13102686 42071
COSMOS 2471 (701K)      
1 37372U 11009A   16028.46296927 -.00000025  00000-0  00000+0 0  9992
2 37372  65.1623  81.7649 0008953 236.7976 142.2383  2.13102910 38279
COSMOS 2474 (742)       
1 37829U 11055A   16029.13174382  .00000071  00000-0  00000+0 0  9995
2 37829  64.5112 201.2170 0005492 248.4934 256.3145  2.13101860 33652
COSMOS 2476 (744)       
1 37867U 11064A   16029.44683832  .00000075  00000-0  00000+0 0  9990
2 37867  64.4911 201.2915 0014337 245.1448 187.1625  2.13101968 33012
COSMOS 2477 (745)       
1 37868U 11064B   16029.11706053  .00000071  00000-0  00000+0 0  9992
2 37868  64.4994 201.3415 0012340 246.2595 112.4499  2.13101836 32953
COSMOS 2475 (743)       
1 37869U 11064C   16029.41688360  .00000075  00000-0  00000+0 0  9990
2 37869  64.5067 201.3179 0017967 278.6500 266.1399  2.13102010 32971
COSMOS 2478 (746)       
1 37938U 11071A   16028.67212837 -.00000025  00000-0  00000+0 0  9990
2 37938  65.1883  81.9777 0014553 240.7215  58.9190  2.13088465 32566
COSMOS 2485 (747)       
1 39155U 13019A   16029.06673561  .00000071  00000-0  00000+0 0  9996
2 39155  64.6601 201.2239 0014678 238.7810 307.1163  2.13102010 21477
COSMOS 2492 (754)       
1 39620U 14012A   16029.44023038 -.00000022  00000-0  13058+2 0  9993
2 39620  65.0540  81.7898 0015846 327.5457 177.6403  2.13103587 14430
COSMOS 2500 (755)       
1 40001U 14032A   16029.16196773 -.00000027  00000-0  00000+0 0  9992
2 40001  64.9941  81.8342 0007277 214.4448 301.2516  2.13102841 12649
COSMOS 2501 (702K)      
1 40315U 14075A   16028.50432845 -.00000054  00000-0  00000+0 0  9997
2 40315  64.6828 323.0105 0017671 241.0701 292.0557  2.13101269  9037
